{
  "type": "FeatureCollection",
  "name": "Estaciones_Metro_de_Santiago",
  "crs": {
    "type": "name",
    "properties": {
      "name": "urn:ogc:def:crs:OGC:1.3:CRS84"
    }
  },
  "features": [
    {
      "type": "Feature",
      "properties": {
        "FID": 1,
        "nombre": "TOESCA",
        "linea": "LINEA 2",
        "combinacion": false,
        "estacion": "EXISTENTE",
        "tipo": "ESTACION METRO",
        "start_date": "1978-03-31",
        "wikidata": "Q6356262",
        "wheelchair": "yes"
      },
      "geometry": {
        "type": "Point",
        "coordinates": [
          -70.6585851,
          -33.4529746
        ]
      }
    },
    {
      "type": "Feature",
      "properties": {
        "FID": 2,
        "nombre": "RONDIZZONI",
        "linea": "LINEA 2",
        "combinacion": false,
        "estacion": "EXISTENTE",
        "tipo": "ESTACION METRO",
        "start_date": "1978-03-31",
        "wikidata": "Q10656756"
      },
      "geometry": {
        "type": "Point",
        "coordinates": [
          -70.6563736,
          -33.4696578
        ]
      }
    },
    {
      "type": "Feature",
      "properties": {
        "FID": 3,
        "nombre": "ESCUELA MILITAR",
        "linea": "LINEA 1",
        "combinacion": false,
        "estacion": "EXISTENTE",
        "tipo": "ESTACION METRO",
        "start_date": "1980-08-31",
        "wikidata": "Q5249688"
      },
      "geometry": {
        "type": "Point",
        "coordinates": [
          -70.5826796,
          -33.4134817
        ]
      }
    },
    {
      "type": "Feature",
      "properties": {
        "FID": 4,
        "nombre": "ALCÁNTARA",
        "linea": "LINEA 1",
        "combinacion": false,
        "estacion": "EXISTENTE",
        "tipo": "ESTACION METRO",
        "start_date": "1980-08-31",
        "wikidata": "Q4713400",
        "wheelchair": "no"
      },
      "geometry": {
        "type": "Point",
        "coordinates": [
          -70.5899906,
          -33.4154469
        ]
      }
    },
    {
      "type": "Feature",
      "properties": {
        "FID": 5,
        "nombre": "EL GOLF",
        "linea": "LINEA 1",
        "combinacion": false,
        "estacion": "EXISTENTE",
        "tipo": "ESTACION METRO",
        "start_date": "1980-08-31",
        "wikidata": "Q5351318"
      },
      "geometry": {
        "type": "Point",
        "coordinates": [
          -70.5957077,
          -33.4166189
        ]
      }
    },
    {
      "type": "Feature",
      "properties": {
        "FID": 6,
        "nombre": "TOBALABA",
        "linea": "LINEA 1",
        "combinacion": true,
        "estacion": "EXISTENTE",
        "tipo": "ESTACION METRO",
        "start_date": "1980-08-31",
        "wikidata": "Q5243191",
        "wheelchair": "yes"
      },
      "geometry": {
        "type": "Point",
        "coordinates": [
          -70.6014872,
          -33.4182154
        ]
      }
    },
    {
      "type": "Feature",
      "properties": {
        "FID": 7,
        "nombre": "PEDRO DE VALDIVIA",
        "linea": "LINEA 1",
        "combinacion": false,
        "estacion": "EXISTENTE",
        "tipo": "ESTACION METRO",
        "start_date": "1980-08-31",
        "wikidata": "Q7160052",
        "wheelchair": "no"
      },
      "geometry": {
        "type": "Point",
        "coordinates": [
          -70.6137959,
          -33.425483
        ]
      }
    },
    {
      "type": "Feature",
      "properties": {
        "FID": 8,
        "nombre": "MANUEL MONTT",
        "linea": "LINEA 1",
        "combinacion": false,
        "estacion": "EXISTENTE",
        "tipo": "ESTACION METRO",
        "start_date": "1980-08-31",
        "wikidata": "Q6752749",
        "wheelchair": "yes"
      },
      "geometry": {
        "type": "Point",
        "coordinates": [
          -70.6196465,
          -33.4285532
        ]
      }
    },
    {
      "type": "Feature",
      "properties": {
        "FID": 9,
        "nombre": "UNIVERSIDAD CATÓLICA",
        "linea": "LINEA 1",
        "combinacion": false,
        "estacion": "EXISTENTE",
        "tipo": "ESTACION METRO",
        "start_date": "1977-03-31",
        "wikidata": "Q5249006",
        "wheelchair": "yes"
      },
      "geometry": {
        "type": "Point",
        "coordinates": [
          -70.6398924,
          -33.4397617
        ]
      }
    },
    {
      "type": "Feature",
      "properties": {
        "FID": 10,
        "nombre": "SANTA LUCÍA",
        "linea": "LINEA 1",
        "combinacion": false,
        "estacion": "EXISTENTE",
        "tipo": "ESTACION METRO",
        "start_date": "1977-03-31",
        "wikidata": "Q3296100",
        "wheelchair": "no"
      },
      "geometry": {
        "type": "Point",
        "coordinates": [
          -70.6447442,
          -33.4424649
        ]
      }
    },
    {
      "type": "Feature",
      "properties": {
        "FID": 11,
        "nombre": "REPÚBLICA",
        "linea": "LINEA 1",
        "combinacion": false,
        "estacion": "EXISTENTE",
        "tipo": "ESTACION METRO",
        "start_date": "1975-09-15",
        "wikidata": "Q5249682"
      },
      "geometry": {
        "type": "Point",
        "coordinates": [
          -70.6671366,
          -33.447702
        ]
      }
    },
    {
      "type": "Feature",
      "properties": {
        "FID": 12,
        "nombre": "UNIÓN LATINOAMERICANA",
        "linea": "LINEA 1",
        "combinacion": false,
        "estacion": "EXISTENTE",
        "tipo": "ESTACION METRO",
        "start_date": "1975-09-15",
        "wikidata": "Q5249662",
        "wheelchair": "no"
      },
      "geometry": {
        "type": "Point",
        "coordinates": [
          -70.673351,
          -33.4493623
        ]
      }
    },
    {
      "type": "Feature",
      "properties": {
        "FID": 13,
        "nombre": "ESTACIÓN CENTRAL",
        "linea": "LINEA 1",
        "combinacion": false,
        "estacion": "EXISTENTE",
        "tipo": "ESTACION METRO",
        "start_date": "1975-09-15",
        "wikidata": "Q5244875"
      },
      "geometry": {
        "type": "Point",
        "coordinates": [
          -70.6789622,
          -33.4508228
        ]
      }
    },
    {
      "type": "Feature",
      "properties": {
        "FID": 14,
        "nombre": "CRISTÓBAL COLÓN",
        "linea": "LINEA 4",
        "combinacion": false,
        "estacion": "EXISTENTE",
        "tipo": "ESTACION METRO",
        "start_date": "2005-11-30",
        "wikidata": "Q5186514",
        "wheelchair": "yes"
      },
      "geometry": {
        "type": "Point",
        "coordinates": [
          -70.5909808,
          -33.4263163
        ]
      }
    },
    {
      "type": "Feature",
      "properties": {
        "FID": 15,
        "nombre": "FRANCISCO BILBAO",
        "linea": "LINEA 4",
        "combinacion": false,
        "estacion": "EXISTENTE",
        "tipo": "ESTACION METRO",
        "start_date": "2005-11-30",
        "wikidata": "Q5483195"
      },
      "geometry": {
        "type": "Point",
        "coordinates": [
          -70.584703,
          -33.4317928
        ]
      }
    },
    {
      "type": "Feature",
      "properties": {
        "FID": 16,
        "nombre": "PRÍNCIPE DE GALES",
        "linea": "LINEA 4",
        "combinacion": false,
        "estacion": "EXISTENTE",
        "tipo": "ESTACION METRO",
        "start_date": "2005-11-30",
        "wikidata": "Q7253835"
      },
      "geometry": {
        "type": "Point",
        "coordinates": [
          -70.5731497,
          -33.4392047
        ]
      }
    },
    {
      "type": "Feature",
      "properties": {
        "FID": 17,
        "nombre": "SIMÓN BOLÍVAR",
        "linea": "LINEA 4",
        "combinacion": false,
        "estacion": "EXISTENTE",
        "tipo": "ESTACION METRO",
        "start_date": "2005-11-30",
        "wikidata": "Q5395486",
        "wheelchair": "yes"
      },
      "geometry": {
        "type": "Point",
        "coordinates": [
          -70.5719261,
          -33.4461845
        ]
      }
    },
    {
      "type": "Feature",
      "properties": {
        "FID": 18,
        "nombre": "BELLAS ARTES",
        "linea": "LINEA 5",
        "combinacion": false,
        "estacion": "EXISTENTE",
        "tipo": "ESTACION METRO",
        "start_date": "2000-03-02",
        "wikidata": "Q4883519",
        "wheelchair": "yes"
      },
      "geometry": {
        "type": "Point",
        "coordinates": [
          -70.6441329,
          -33.4366322
        ]
      }
    },
    {
      "type": "Feature",
      "properties": {
        "FID": 19,
        "nombre": "CUMMING",
        "linea": "LINEA 5",
        "combinacion": false,
        "estacion": "EXISTENTE",
        "tipo": "ESTACION METRO",
        "start_date": "2004-03-31",
        "wikidata": "Q5794757",
        "wheelchair": "no"
      },
      "geometry": {
        "type": "Point",
        "coordinates": [
          -70.668534,
          -33.4391444
        ]
      }
    },
    {
      "type": "Feature",
      "properties": {
        "FID": 20,
        "nombre": "UNIVERSIDAD DE SANTIAGO",
        "linea": "LINEA 1",
        "combinacion": false,
        "estacion": "EXISTENTE",
        "tipo": "ESTACION METRO",
        "start_date": "1975-09-15",
        "wikidata": "Q5249675"
      },
      "geometry": {
        "type": "Point",
        "coordinates": [
          -70.6865552,
          -33.4528554
        ]
      }
    },
    {
      "type": "Feature",
      "properties": {
        "FID": 21,
        "nombre": "SAN ALBERTO HURTADO",
        "linea": "LINEA 1",
        "combinacion": false,
        "estacion": "EXISTENTE",
        "tipo": "ESTACION METRO",
        "start_date": "1975-09-15",
        "wikidata": "Q5243861"
      },
      "geometry": {
        "type": "Point",
        "coordinates": [
          -70.6922721,
          -33.4542019
        ]
      }
    },
    {
      "type": "Feature",
      "properties": {
        "FID": 22,
        "nombre": "ECUADOR",
        "linea": "LINEA 1",
        "combinacion": false,
        "estacion": "EXISTENTE",
        "tipo": "ESTACION METRO",
        "start_date": "1975-09-15",
        "wikidata": "Q5250951"
      },
      "geometry": {
        "type": "Point",
        "coordinates": [
          -70.6997325,
          -33.4559226
        ]
      }
    },
    {
      "type": "Feature",
      "properties": {
        "FID": 23,
        "nombre": "LAS REJAS",
        "linea": "LINEA 1",
        "combinacion": false,
        "estacion": "EXISTENTE",
        "tipo": "ESTACION METRO",
        "start_date": "1975-09-15",
        "wikidata": "Q5249655"
      },
      "geometry": {
        "type": "Point",
        "coordinates": [
          -70.7067561,
          -33.4575386
        ]
      }
    },
    {
      "type": "Feature",
      "properties": {
        "FID": 24,
        "nombre": "PAJARITOS",
        "linea": "LINEA 1",
        "combinacion": false,
        "estacion": "EXISTENTE",
        "tipo": "ESTACION METRO",
        "start_date": "1975-09-15",
        "wikidata": "Q6311190",
        "wheelchair": "yes"
      },
      "geometry": {
        "type": "Point",
        "coordinates": [
          -70.7154469,
          -33.4574748
        ]
      }
    },
    {
      "type": "Feature",
      "properties": {
        "FID": 25,
        "nombre": "SANTA ISABEL",
        "linea": "LINEA 5",
        "combinacion": false,
        "estacion": "EXISTENTE",
        "tipo": "ESTACION METRO",
        "start_date": "1997-04-05",
        "wikidata": "Q6120443",
        "wheelchair": "yes"
      },
      "geometry": {
        "type": "Point",
        "coordinates": [
          -70.6304343,
          -33.4471204
        ]
      }
    },
    {
      "type": "Feature",
      "properties": {
        "FID": 26,
        "nombre": "MIRADOR",
        "linea": "LINEA 5",
        "combinacion": false,
        "estacion": "EXISTENTE",
        "tipo": "ESTACION METRO",
        "start_date": "1997-04-05",
        "wikidata": "Q610924"
      },
      "geometry": {
        "type": "Point",
        "coordinates": [
          -70.6059146,
          -33.5133028
        ]
      }
    },
    {
      "type": "Feature",
      "properties": {
        "FID": 27,
        "nombre": "PEDRERO",
        "linea": "LINEA 5",
        "combinacion": false,
        "estacion": "EXISTENTE",
        "tipo": "ESTACION METRO",
        "start_date": "1997-04-05",
        "wikidata": "Q7159396",
        "wheelchair": "limited"
      },
      "geometry": {
        "type": "Point",
        "coordinates": [
          -70.6124467,
          -33.5079499
        ]
      }
    },
    {
      "type": "Feature",
      "properties": {
        "FID": 28,
        "nombre": "CAMINO AGRÍCOLA",
        "linea": "LINEA 5",
        "combinacion": false,
        "estacion": "EXISTENTE",
        "tipo": "ESTACION METRO",
        "start_date": "1997-04-05",
        "wikidata": "Q5026775"
      },
      "geometry": {
        "type": "Point",
        "coordinates": [
          -70.6175195,
          -33.4917907
        ]
      }
    },
    {
      "type": "Feature",
      "properties": {
        "FID": 29,
        "nombre": "CARLOS VALDOVINOS",
        "linea": "LINEA 5",
        "combinacion": false,
        "estacion": "EXISTENTE",
        "tipo": "ESTACION METRO",
        "start_date": "1997-04-05",
        "wikidata": "Q384837",
        "wheelchair": "yes"
      },
      "geometry": {
        "type": "Point",
        "coordinates": [
          -70.6191824,
          -33.4863985
        ]
      }
    },
    {
      "type": "Feature",
      "properties": {
        "FID": 30,
        "nombre": "RODRIGO DE ARAYA",
        "linea": "LINEA 5",
        "combinacion": false,
        "estacion": "EXISTENTE",
        "tipo": "ESTACION METRO",
        "start_date": "1997-04-05",
        "wikidata": "Q6110846"
      },
      "geometry": {
        "type": "Point",
        "coordinates": [
          -70.6222636,
          -33.4778167
        ]
      }
    },
    {
      "type": "Feature",
      "properties": {
        "FID": 31,
        "nombre": "PARQUE O'HIGGINS",
        "linea": "LINEA 2",
        "combinacion": false,
        "estacion": "EXISTENTE",
        "tipo": "ESTACION METRO",
        "start_date": "1978-03-31",
        "wikidata": "Q5574675",
        "wheelchair": "yes"
      },
      "geometry": {
        "type": "Point",
        "coordinates": [
          -70.6568466,
          -33.4608472
        ]
      }
    },
    {
      "type": "Feature",
      "properties": {
        "FID": 32,
        "nombre": "QUINTA NORMAL",
        "linea": "LINEA 5",
        "combinacion": false,
        "estacion": "EXISTENTE",
        "tipo": "ESTACION METRO",
        "start_date": "2004-03-31",
        "wikidata": "Q7272365",
        "wheelchair": "yes"
      },
      "geometry": {
        "type": "Point",
        "coordinates": [
          -70.6802912,
          -33.440368
        ]
      }
    },
    {
      "type": "Feature",
      "properties": {
        "FID": 33,
        "nombre": "LOS ORIENTALES",
        "linea": "LINEA 4",
        "combinacion": false,
        "estacion": "EXISTENTE",
        "tipo": "ESTACION METRO",
        "start_date": "2005-11-30",
        "wikidata": "Q9024101"
      },
      "geometry": {
        "type": "Point",
        "coordinates": [
          -70.5739242,
          -33.4626181
        ]
      }
    },
    {
      "type": "Feature",
      "properties": {
        "FID": 34,
        "nombre": "GRECIA",
        "linea": "LINEA 4",
        "combinacion": false,
        "estacion": "EXISTENTE",
        "tipo": "ESTACION METRO",
        "start_date": "2005-11-30",
        "wikidata": "Q5885152"
      },
      "geometry": {
        "type": "Point",
        "coordinates": [
          -70.5765034,
          -33.4695344
        ]
      }
    },
    {
      "type": "Feature",
      "properties": {
        "FID": 35,
        "nombre": "LOS PRESIDENTES",
        "linea": "LINEA 4",
        "combinacion": false,
        "estacion": "EXISTENTE",
        "tipo": "ESTACION METRO",
        "start_date": "2006-03-02",
        "wikidata": "Q15242908"
      },
      "geometry": {
        "type": "Point",
        "coordinates": [
          -70.5786662,
          -33.479837
        ]
      }
    },
    {
      "type": "Feature",
      "properties": {
        "FID": 36,
        "nombre": "QUILÍN",
        "linea": "LINEA 4",
        "combinacion": false,
        "estacion": "EXISTENTE",
        "tipo": "ESTACION METRO",
        "start_date": "2006-03-02",
        "wikidata": "Q7272039"
      },
      "geometry": {
        "type": "Point",
        "coordinates": [
          -70.5804178,
          -33.4882637
        ]
      }
    },
    {
      "type": "Feature",
      "properties": {
        "FID": 37,
        "nombre": "LAS TORRES",
        "linea": "LINEA 4",
        "combinacion": false,
        "estacion": "EXISTENTE",
        "tipo": "ESTACION METRO",
        "start_date": "2006-03-02",
        "wikidata": "Q9020552",
        "wheelchair": "yes"
      },
      "geometry": {
        "type": "Point",
        "coordinates": [
          -70.5865459,
          -33.499108
        ]
      }
    },
    {
      "type": "Feature",
      "properties": {
        "FID": 38,
        "nombre": "MACUL",
        "linea": "LINEA 4",
        "combinacion": false,
        "estacion": "EXISTENTE",
        "tipo": "ESTACION METRO",
        "start_date": "2006-03-02",
        "wikidata": "Q11690171",
        "wheelchair": "yes"
      },
      "geometry": {
        "type": "Point",
        "coordinates": [
          -70.5900473,
          -33.5092379
        ]
      }
    },
    {
      "type": "Feature",
      "properties": {
        "FID": 39,
        "nombre": "ROJAS MAGALLANES",
        "linea": "LINEA 4",
        "combinacion": false,
        "estacion": "EXISTENTE",
        "tipo": "ESTACION METRO",
        "start_date": "2005-11-30",
        "wikidata": "Q7359919",
        "wheelchair": "yes"
      },
      "geometry": {
        "type": "Point",
        "coordinates": [
          -70.5926966,
          -33.5361069
        ]
      }
    },
    {
      "type": "Feature",
      "properties": {
        "FID": 40,
        "nombre": "TRINIDAD",
        "linea": "LINEA 4",
        "combinacion": false,
        "estacion": "EXISTENTE",
        "tipo": "ESTACION METRO",
        "start_date": "2005-11-30",
        "wikidata": "Q7842489",
        "wheelchair": "yes"
      },
      "geometry": {
        "type": "Point",
        "coordinates": [
          -70.5881027,
          -33.5462943
        ]
      }
    },
    {
      "type": "Feature",
      "properties": {
        "FID": 41,
        "nombre": "LOS QUILLAYES",
        "linea": "LINEA 4",
        "combinacion": false,
        "estacion": "EXISTENTE",
        "tipo": "ESTACION METRO",
        "start_date": "2005-11-30",
        "wikidata": "Q6683179",
        "wheelchair": "yes"
      },
      "geometry": {
        "type": "Point",
        "coordinates": [
          -70.5852697,
          -33.5612253
        ]
      }
    },
    {
      "type": "Feature",
      "properties": {
        "FID": 42,
        "nombre": "ELISA CORREA",
        "linea": "LINEA 4",
        "combinacion": false,
        "estacion": "EXISTENTE",
        "tipo": "ESTACION METRO",
        "start_date": "2005-11-30",
        "wikidata": "Q5829529",
        "wheelchair": "yes"
      },
      "geometry": {
        "type": "Point",
        "coordinates": [
          -70.5838076,
          -33.5692937
        ]
      }
    },
    {
      "type": "Feature",
      "properties": {
        "FID": 43,
        "nombre": "HOSPITAL SÓTERO DEL RÍO",
        "linea": "LINEA 4",
        "combinacion": false,
        "estacion": "EXISTENTE",
        "tipo": "ESTACION METRO",
        "start_date": "2005-11-30",
        "wikidata": "Q5902927",
        "wheelchair": "yes"
      },
      "geometry": {
        "type": "Point",
        "coordinates": [
          -70.582317,
          -33.5768981
        ]
      }
    },
    {
      "type": "Feature",
      "properties": {
        "FID": 44,
        "nombre": "PROTECTORA DE LA INFANCIA",
        "linea": "LINEA 4",
        "combinacion": false,
        "estacion": "EXISTENTE",
        "tipo": "ESTACION METRO",
        "start_date": "2005-11-30",
        "wikidata": "Q6088452"
      },
      "geometry": {
        "type": "Point",
        "coordinates": [
          -70.579833,
          -33.5895738
        ]
      }
    },
    {
      "type": "Feature",
      "properties": {
        "FID": 45,
        "nombre": "BELLAVISTA DE LA FLORIDA",
        "linea": "LINEA 5",
        "combinacion": false,
        "estacion": "EXISTENTE",
        "tipo": "ESTACION METRO",
        "start_date": "1997-04-05",
        "wikidata": "Q4883560",
        "wheelchair": "yes"
      },
      "geometry": {
        "type": "Point",
        "coordinates": [
          -70.6000253,
          -33.5195217
        ]
      }
    },
    {
      "type": "Feature",
      "properties": {
        "FID": 46,
        "nombre": "CEMENTERIOS",
        "linea": "LINEA 2",
        "combinacion": false,
        "estacion": "EXISTENTE",
        "tipo": "ESTACION METRO",
        "start_date": "2005-11-25",
        "wikidata": "Q5058674"
      },
      "geometry": {
        "type": "Point",
        "coordinates": [
          -70.643597,
          -33.4139806
        ]
      }
    },
    {
      "type": "Feature",
      "properties": {
        "FID": 47,
        "nombre": "ZAPADORES",
        "linea": "LINEA 2",
        "combinacion": false,
        "estacion": "EXISTENTE",
        "tipo": "ESTACION METRO",
        "start_date": "2006-12-21",
        "wikidata": "Q9097479"
      },
      "geometry": {
        "type": "Point",
        "coordinates": [
          -70.6424385,
          -33.3909444
        ]
      }
    },
    {
      "type": "Feature",
      "properties": {
        "FID": 48,
        "nombre": "DORSAL",
        "linea": "LINEA 2",
        "combinacion": false,
        "estacion": "EXISTENTE",
        "tipo": "ESTACION METRO",
        "start_date": "2006-12-21",
        "wikidata": "Q3037252"
      },
      "geometry": {
        "type": "Point",
        "coordinates": [
          -70.6427404,
          -33.3969616
        ]
      }
    },
    {
      "type": "Feature",
      "properties": {
        "FID": 49,
        "nombre": "VESPUCIO NORTE",
        "linea": "LINEA 2",
        "combinacion": false,
        "estacion": "EXISTENTE",
        "tipo": "ESTACION METRO",
        "start_date": "2006-12-21",
        "wikidata": "Q5250931"
      },
      "geometry": {
        "type": "Point",
        "coordinates": [
          -70.6463404,
          -33.3807538
        ]
      }
    },
    {
      "type": "Feature",
      "properties": {
        "FID": 50,
        "nombre": "EL LLANO",
        "linea": "LINEA 2",
        "combinacion": false,
        "estacion": "EXISTENTE",
        "tipo": "ESTACION METRO",
        "start_date": "1978-12-21",
        "wikidata": "Q549653"
      },
      "geometry": {
        "type": "Point",
        "coordinates": [
          -70.6493814,
          -33.4826014
        ]
      }
    },
    {
      "type": "Feature",
      "properties": {
        "FID": 51,
        "nombre": "SAN MIGUEL",
        "linea": "LINEA 2",
        "combinacion": false,
        "estacion": "EXISTENTE",
        "tipo": "ESTACION METRO",
        "start_date": "1978-12-21",
        "wikidata": "Q9073628"
      },
      "geometry": {
        "type": "Point",
        "coordinates": [
          -70.6510725,
          -33.4887157
        ]
      }
    },
    {
      "type": "Feature",
      "properties": {
        "FID": 52,
        "nombre": "LO VIAL",
        "linea": "LINEA 2",
        "combinacion": false,
        "estacion": "EXISTENTE",
        "tipo": "ESTACION METRO",
        "start_date": "1978-12-21",
        "wikidata": "Q507052"
      },
      "geometry": {
        "type": "Point",
        "coordinates": [
          -70.6530148,
          -33.4968286
        ]
      }
    },
    {
      "type": "Feature",
      "properties": {
        "FID": 53,
        "nombre": "DEPARTAMENTAL",
        "linea": "LINEA 2",
        "combinacion": false,
        "estacion": "EXISTENTE",
        "tipo": "ESTACION METRO",
        "start_date": "1978-12-21",
        "wikidata": "Q5670414",
        "wheelchair": "no"
      },
      "geometry": {
        "type": "Point",
        "coordinates": [
          -70.6546333,
          -33.5024398
        ]
      }
    },
    {
      "type": "Feature",
      "properties": {
        "FID": 54,
        "nombre": "CIUDAD DEL NIÑO",
        "linea": "LINEA 2",
        "combinacion": false,
        "estacion": "EXISTENTE",
        "tipo": "ESTACION METRO",
        "start_date": "1978-12-21",
        "wikidata": "Q8346536",
        "wheelchair": "no"
      },
      "geometry": {
        "type": "Point",
        "coordinates": [
          -70.6566453,
          -33.5095432
        ]
      }
    },
    {
      "type": "Feature",
      "properties": {
        "FID": 55,
        "nombre": "LO OVALLE",
        "linea": "LINEA 2",
        "combinacion": false,
        "estacion": "EXISTENTE",
        "tipo": "ESTACION METRO",
        "start_date": "1978-12-21",
        "wikidata": "Q9023375",
        "wheelchair": "no"
      },
      "geometry": {
        "type": "Point",
        "coordinates": [
          -70.6588205,
          -33.5172701
        ]
      }
    },
    {
      "type": "Feature",
      "properties": {
        "FID": 56,
        "nombre": "EL PARRÓN",
        "linea": "LINEA 2",
        "combinacion": false,
        "estacion": "EXISTENTE",
        "tipo": "ESTACION METRO",
        "start_date": "2004-12-22",
        "wikidata": "Q8773261",
        "wheelchair": "yes"
      },
      "geometry": {
        "type": "Point",
        "coordinates": [
          -70.6614044,
          -33.5264317
        ]
      }
    },
    {
      "type": "Feature",
      "properties": {
        "FID": 57,
        "nombre": "SANTA JULIA",
        "linea": "LINEA 4A",
        "combinacion": false,
        "estacion": "EXISTENTE",
        "tipo": "ESTACION METRO",
        "start_date": "2006-08-16",
        "wikidata": "Q9074071",
        "wheelchair": "yes"
      },
      "geometry": {
        "type": "Point",
        "coordinates": [
          -70.6055361,
          -33.5311022
        ]
      }
    },
    {
      "type": "Feature",
      "properties": {
        "FID": 58,
        "nombre": "LA GRANJA",
        "linea": "LINEA 4A",
        "combinacion": false,
        "estacion": "EXISTENTE",
        "tipo": "ESTACION METRO",
        "start_date": "2006-08-16",
        "wikidata": "Q2881407",
        "wheelchair": "yes"
      },
      "geometry": {
        "type": "Point",
        "coordinates": [
          -70.616047,
          -33.5411298
        ]
      }
    },
    {
      "type": "Feature",
      "properties": {
        "FID": 59,
        "nombre": "SANTA ROSA",
        "linea": "LINEA 4A",
        "combinacion": false,
        "estacion": "EXISTENTE",
        "tipo": "ESTACION METRO",
        "start_date": "2006-08-16",
        "wikidata": "Q9074162",
        "wheelchair": "yes"
      },
      "geometry": {
        "type": "Point",
        "coordinates": [
          -70.6341267,
          -33.5423878
        ]
      }
    },
    {
      "type": "Feature",
      "properties": {
        "FID": 60,
        "nombre": "SAN RAMÓN",
        "linea": "LINEA 4A",
        "combinacion": false,
        "estacion": "EXISTENTE",
        "tipo": "ESTACION METRO",
        "start_date": "2006-08-16",
        "wikidata": "Q9073714",
        "wheelchair": "yes"
      },
      "geometry": {
        "type": "Point",
        "coordinates": [
          -70.6431272,
          -33.5412286
        ]
      }
    },
    {
      "type": "Feature",
      "properties": {
        "FID": 61,
        "nombre": "MANQUEHUE",
        "linea": "LINEA 1",
        "combinacion": false,
        "estacion": "EXISTENTE",
        "tipo": "ESTACION METRO",
        "start_date": "2010-01-07",
        "wikidata": "Q6751521"
      },
      "geometry": {
        "type": "Point",
        "coordinates": [
          -70.5697326,
          -33.4094637
        ]
      }
    },
    {
      "type": "Feature",
      "properties": {
        "FID": 62,
        "nombre": "HERNANDO DE MAGALLANES",
        "linea": "LINEA 1",
        "combinacion": false,
        "estacion": "EXISTENTE",
        "tipo": "ESTACION METRO",
        "start_date": "2010-01-07",
        "wikidata": "Q5742266",
        "wheelchair": "yes"
      },
      "geometry": {
        "type": "Point",
        "coordinates": [
          -70.5558454,
          -33.4079352
        ]
      }
    },
    {
      "type": "Feature",
      "properties": {
        "FID": 63,
        "nombre": "LOS DOMINICOS",
        "linea": "LINEA 1",
        "combinacion": false,
        "estacion": "EXISTENTE",
        "tipo": "ESTACION METRO",
        "start_date": "2010-01-07",
        "wikidata": "Q9023991"
      },
      "geometry": {
        "type": "Point",
        "coordinates": [
          -70.5449939,
          -33.4078854
        ]
      }
    },
    {
      "type": "Feature",
      "properties": {
        "FID": 64,
        "nombre": "BARRANCAS",
        "linea": "LINEA 5",
        "combinacion": false,
        "estacion": "EXISTENTE",
        "tipo": "ESTACION METRO",
        "start_date": "2011-02-03",
        "wikidata": "Q5719931",
        "wheelchair": "yes"
      },
      "geometry": {
        "type": "Point",
        "coordinates": [
          -70.739037,
          -33.4529813
        ]
      }
    },
    {
      "type": "Feature",
      "properties": {
        "FID": 65,
        "nombre": "LAGUNA SUR",
        "linea": "LINEA 5",
        "combinacion": false,
        "estacion": "EXISTENTE",
        "tipo": "ESTACION METRO",
        "start_date": "2011-02-03",
        "wikidata": "Q15241275",
        "wheelchair": "yes"
      },
      "geometry": {
        "type": "Point",
        "coordinates": [
          -70.7379067,
          -33.4621633
        ]
      }
    },
    {
      "type": "Feature",
      "properties": {
        "FID": 66,
        "nombre": "LAS PARCELAS",
        "linea": "LINEA 5",
        "combinacion": false,
        "estacion": "EXISTENTE",
        "tipo": "ESTACION METRO",
        "start_date": "2011-02-03",
        "wikidata": "Q5858466",
        "wheelchair": "yes"
      },
      "geometry": {
        "type": "Point",
        "coordinates": [
          -70.7399789,
          -33.4752719
        ]
      }
    },
    {
      "type": "Feature",
      "properties": {
        "FID": 67,
        "nombre": "MONTE TABOR",
        "linea": "LINEA 5",
        "combinacion": false,
        "estacion": "EXISTENTE",
        "tipo": "ESTACION METRO",
        "start_date": "2011-02-03",
        "wikidata": "Q6904923",
        "wheelchair": "yes"
      },
      "geometry": {
        "type": "Point",
        "coordinates": [
          -70.7454383,
          -33.4822861
        ]
      }
    },
    {
      "type": "Feature",
      "properties": {
        "FID": 68,
        "nombre": "LAS MERCEDES",
        "linea": "LINEA 4",
        "combinacion": false,
        "estacion": "EXISTENTE",
        "tipo": "ESTACION METRO",
        "start_date": "2005-11-30",
        "wikidata": "Q9020486",
        "wheelchair": "yes"
      },
      "geometry": {
        "type": "Point",
        "coordinates": [
          -70.5774783,
          -33.6013816
        ]
      }
    },
    {
      "type": "Feature",
      "properties": {
        "FID": 69,
        "nombre": "SAN JOSÉ DE LA ESTRELLA",
        "linea": "LINEA 4",
        "combinacion": false,
        "estacion": "EXISTENTE",
        "tipo": "ESTACION METRO",
        "start_date": "2009-11-05",
        "wikidata": "Q2878193",
        "wheelchair": "yes"
      },
      "geometry": {
        "type": "Point",
        "coordinates": [
          -70.5865567,
          -33.5538213
        ]
      }
    },
    {
      "type": "Feature",
      "properties": {
        "FID": 70,
        "nombre": "PARQUE BUSTAMANTE",
        "linea": "LINEA 5",
        "combinacion": false,
        "estacion": "EXISTENTE",
        "tipo": "ESTACION METRO",
        "start_date": "1997-04-05",
        "wikidata": "Q7139629",
        "wheelchair": "yes"
      },
      "geometry": {
        "type": "Point",
        "coordinates": [
          -70.6319594,
          -33.4428037
        ]
      }
    },
    {
      "type": "Feature",
      "properties": {
        "FID": 71,
        "nombre": "GRUTA DE LOURDES",
        "linea": "LINEA 5",
        "combinacion": false,
        "estacion": "EXISTENTE",
        "tipo": "ESTACION METRO",
        "start_date": "2010-01-12",
        "wikidata": "Q5491966",
        "wheelchair": "yes"
      },
      "geometry": {
        "type": "Point",
        "coordinates": [
          -70.6910279,
          -33.438011
        ]
      }
    },
    {
      "type": "Feature",
      "properties": {
        "FID": 72,
        "nombre": "BLANQUEADO",
        "linea": "LINEA 5",
        "combinacion": false,
        "estacion": "EXISTENTE",
        "tipo": "ESTACION METRO",
        "start_date": "2010-01-12",
        "wikidata": "Q4925213",
        "wheelchair": "yes"
      },
      "geometry": {
        "type": "Point",
        "coordinates": [
          -70.7066515,
          -33.4413214
        ]
      }
    },
    {
      "type": "Feature",
      "properties": {
        "FID": 73,
        "nombre": "PUDAHUEL",
        "linea": "LINEA 5",
        "combinacion": false,
        "estacion": "EXISTENTE",
        "tipo": "ESTACION METRO",
        "start_date": "2010-01-12",
        "wheelchair": "yes"
      },
      "geometry": {
        "type": "Point",
        "coordinates": [
          -70.7411438,
          -33.4448632
        ]
      }
    },
    {
      "type": "Feature",
      "properties": {
        "FID": 74,
        "nombre": "LO PRADO",
        "linea": "LINEA 5",
        "combinacion": false,
        "estacion": "EXISTENTE",
        "tipo": "ESTACION METRO",
        "start_date": "2010-01-12",
        "wikidata": "Q6663171",
        "wheelchair": "yes"
      },
      "geometry": {
        "type": "Point",
        "coordinates": [
          -70.7167535,
          -33.4434094
        ]
      }
    },
    {
      "type": "Feature",
      "properties": {
        "FID": 75,
        "nombre": "SANTIAGO BUERAS",
        "linea": "LINEA 5",
        "combinacion": false,
        "estacion": "EXISTENTE",
        "tipo": "ESTACION METRO",
        "start_date": "2011-02-03",
        "wikidata": "Q9074235",
        "wheelchair": "yes"
      },
      "geometry": {
        "type": "Point",
        "coordinates": [
          -70.7574349,
          -33.4962414
        ]
      }
    },
    {
      "type": "Feature",
      "properties": {
        "FID": 76,
        "nombre": "SANTA ANA",
        "linea": "LINEA 2",
        "combinacion": true,
        "estacion": "EXISTENTE",
        "tipo": "ESTACION METRO",
        "start_date": "1987-09-15",
        "wikidata": "Q4209989"
      },
      "geometry": {
        "type": "Point",
        "coordinates": [
          -70.6598961,
          -33.4382499
        ]
      }
    },
    {
      "type": "Feature",
      "properties": {
        "FID": 77,
        "nombre": "PLAZA DE PUENTE ALTO",
        "linea": "LINEA 4",
        "combinacion": false,
        "estacion": "EXISTENTE",
        "tipo": "ESTACION METRO",
        "start_date": "2005-11-30",
        "wikidata": "Q9060941"
      },
      "geometry": {
        "type": "Point",
        "coordinates": [
          -70.5758419,
          -33.6095235
        ]
      }
    },
    {
      "type": "Feature",
      "properties": {
        "FID": 78,
        "nombre": "SALVADOR",
        "linea": "LINEA 1",
        "combinacion": false,
        "estacion": "EXISTENTE",
        "tipo": "ESTACION METRO",
        "start_date": "1977-03-31",
        "wikidata": "Q7406479",
        "wheelchair": "yes"
      },
      "geometry": {
        "type": "Point",
        "coordinates": [
          -70.6260885,
          -33.4327195
        ]
      }
    },
    {
      "type": "Feature",
      "properties": {
        "FID": 79,
        "nombre": "DEL SOL",
        "linea": "LINEA 5",
        "combinacion": false,
        "estacion": "EXISTENTE",
        "tipo": "ESTACION METRO",
        "start_date": "2011-02-03",
        "wikidata": "Q5253000",
        "wheelchair": "yes"
      },
      "geometry": {
        "type": "Point",
        "coordinates": [
          -70.7531153,
          -33.4902363
        ]
      }
    },
    {
      "type": "Feature",
      "properties": {
        "FID": 80,
        "nombre": "PRESIDENTE PEDRO AGUIRRE CERDA",
        "linea": "LINEA 6",
        "combinacion": false,
        "estacion": "EXISTENTE",
        "tipo": "ESTACION METRO",
        "wikidata": "Q5774327",
        "wheelchair": "yes"
      },
      "geometry": {
        "type": "Point",
        "coordinates": [
          -70.6647874,
          -33.4786906
        ]
      }
    },
    {
      "type": "Feature",
      "properties": {
        "FID": 81,
        "nombre": "BÍO BÍO",
        "linea": "LINEA 6",
        "combinacion": false,
        "estacion": "EXISTENTE",
        "tipo": "ESTACION METRO",
        "wikidata": "Q5728779",
        "wheelchair": "yes"
      },
      "geometry": {
        "type": "Point",
        "coordinates": [
          -70.6421784,
          -33.4766072
        ]
      }
    },
    {
      "type": "Feature",
      "properties": {
        "FID": 82,
        "nombre": "INÉS DE SUÁREZ",
        "linea": "LINEA 6",
        "combinacion": false,
        "estacion": "EXISTENTE",
        "tipo": "ESTACION METRO",
        "wikidata": "Q5919742",
        "wheelchair": "yes"
      },
      "geometry": {
        "type": "Point",
        "coordinates": [
          -70.6073371,
          -33.438721
        ]
      }
    },
    {
      "type": "Feature",
      "properties": {
        "FID": 83,
        "nombre": "ÑUBLE",
        "linea": "LINEA 6",
        "combinacion": true,
        "estacion": "EXISTENTE",
        "tipo": "ESTACION METRO",
        "start_date": "1997-04-05",
        "wikidata": "Q602955"
      },
      "geometry": {
        "type": "Point",
        "coordinates": [
          -70.6247567,
          -33.4673629
        ]
      }
    },
    {
      "type": "Feature",
      "properties": {
        "FID": 84,
        "nombre": "SAN PABLO",
        "linea": "LINEA 1",
        "combinacion": true,
        "estacion": "EXISTENTE",
        "tipo": "ESTACION METRO",
        "start_date": "1975-09-15",
        "wikidata": "Q5248997",
        "wheelchair": "yes"
      },
      "geometry": {
        "type": "Point",
        "coordinates": [
          -70.7231838,
          -33.4442061
        ]
      }
    },
    {
      "type": "Feature",
      "properties": {
        "FID": 85,
        "nombre": "PATRONATO",
        "linea": "LINEA 2",
        "combinacion": false,
        "estacion": "EXISTENTE",
        "tipo": "ESTACION METRO",
        "start_date": "2004-11-08",
        "wikidata": "Q7148151"
      },
      "geometry": {
        "type": "Point",
        "coordinates": [
          -70.6471183,
          -33.4297317
        ]
      }
    },
    {
      "type": "Feature",
      "properties": {
        "FID": 86,
        "nombre": "CERRO BLANCO",
        "linea": "LINEA 2",
        "combinacion": false,
        "estacion": "EXISTENTE",
        "tipo": "ESTACION METRO",
        "start_date": "2004-11-08",
        "wikidata": "Q5064868"
      },
      "geometry": {
        "type": "Point",
        "coordinates": [
          -70.6450582,
          -33.4227505
        ]
      }
    },
    {
      "type": "Feature",
      "properties": {
        "FID": 87,
        "nombre": "EINSTEIN",
        "linea": "LINEA 2",
        "combinacion": false,
        "estacion": "EXISTENTE",
        "tipo": "ESTACION METRO",
        "start_date": "2005-11-25",
        "wikidata": "Q8772688"
      },
      "geometry": {
        "type": "Point",
        "coordinates": [
          -70.6431738,
          -33.4059459
        ]
      }
    },
    {
      "type": "Feature",
      "properties": {
        "FID": 88,
        "nombre": "BAQUEDANO",
        "linea": "LINEA 1",
        "combinacion": true,
        "estacion": "EXISTENTE",
        "tipo": "ESTACION METRO",
        "start_date": "1977-03-31",
        "wikidata": "Q2883718",
        "wheelchair": "yes"
      },
      "geometry": {
        "type": "Point",
        "coordinates": [
          -70.6334109,
          -33.4372174
        ]
      }
    },
    {
      "type": "Feature",
      "properties": {
        "FID": 89,
        "nombre": "MONSEÑOR EYZAGUIRRE",
        "linea": "LINEA 3",
        "combinacion": false,
        "estacion": "EXISTENTE",
        "tipo": "ESTACION METRO",
        "start_date": "2019-01-22",
        "wikidata": "Q6022112",
        "wheelchair": "yes"
      },
      "geometry": {
        "type": "Point",
        "coordinates": [
          -70.613519,
          -33.4531944
        ]
      }
    },
    {
      "type": "Feature",
      "properties": {
        "FID": 90,
        "nombre": "CHILE ESPAÑA",
        "linea": "LINEA 3",
        "combinacion": false,
        "estacion": "EXISTENTE",
        "tipo": "ESTACION METRO",
        "wikidata": "Q2841226"
      },
      "geometry": {
        "type": "Point",
        "coordinates": [
          -70.5981422,
          -33.4549078
        ]
      }
    },
    {
      "type": "Feature",
      "properties": {
        "FID": 91,
        "nombre": "VILLA FREI",
        "linea": "LINEA 3",
        "combinacion": false,
        "estacion": "EXISTENTE",
        "tipo": "ESTACION METRO",
        "start_date": "2019-01-22",
        "wikidata": "Q5805018"
      },
      "geometry": {
        "type": "Point",
        "coordinates": [
          -70.5814833,
          -33.4546697
        ]
      }
    },
    {
      "type": "Feature",
      "properties": {
        "FID": 92,
        "nombre": "LOS HÉROES",
        "linea": "LINEA 2",
        "combinacion": true,
        "estacion": "EXISTENTE",
        "tipo": "ESTACION METRO",
        "start_date": "1975-09-15",
        "wikidata": "Q6682858"
      },
      "geometry": {
        "type": "Point",
        "coordinates": [
          -70.6604458,
          -33.4461853
        ]
      }
    },
    {
      "type": "Feature",
      "properties": {
        "FID": 93,
        "nombre": "LOS LIBERTADORES",
        "linea": "LINEA 3",
        "combinacion": false,
        "estacion": "EXISTENTE",
        "tipo": "ESTACION METRO",
        "start_date": "2019-01-22",
        "wikidata": "Q5904052",
        "wheelchair": "yes"
      },
      "geometry": {
        "type": "Point",
        "coordinates": [
          -70.6919903,
          -33.3654303
        ]
      }
    },
    {
      "type": "Feature",
      "properties": {
        "FID": 94,
        "nombre": "CERRILLOS",
        "linea": "LINEA 6",
        "combinacion": false,
        "estacion": "EXISTENTE",
        "tipo": "ESTACION METRO",
        "wikidata": "Q5762791"
      },
      "geometry": {
        "type": "Point",
        "coordinates": [
          -70.6955562,
          -33.4834342
        ]
      }
    },
    {
      "type": "Feature",
      "properties": {
        "FID": 95,
        "nombre": "LA MONEDA",
        "linea": "LINEA 1",
        "combinacion": false,
        "estacion": "EXISTENTE",
        "tipo": "ESTACION METRO",
        "start_date": "1975-09-15",
        "wikidata": "Q5238837"
      },
      "geometry": {
        "type": "Point",
        "coordinates": [
          -70.6548709,
          -33.4448711
        ]
      }
    },
    {
      "type": "Feature",
      "properties": {
        "FID": 96,
        "nombre": "PLAZA DE MAIPÚ",
        "linea": "LINEA 5",
        "combinacion": false,
        "estacion": "EXISTENTE",
        "tipo": "ESTACION METRO",
        "start_date": "2011-02-03",
        "wikidata": "Q7203680",
        "wheelchair": "yes"
      },
      "geometry": {
        "type": "Point",
        "coordinates": [
          -70.7573092,
          -33.5099332
        ]
      }
    },
    {
      "type": "Feature",
      "properties": {
        "FID": 97,
        "nombre": "LO VALLEDOR",
        "linea": "LINEA 6",
        "combinacion": false,
        "estacion": "EXISTENTE",
        "tipo": "ESTACION METRO",
        "wikidata": "Q5977973"
      },
      "geometry": {
        "type": "Point",
        "coordinates": [
          -70.6809001,
          -33.4784048
        ]
      }
    },
    {
      "type": "Feature",
      "properties": {
        "FID": 98,
        "nombre": "ESTADIO NACIONAL",
        "linea": "LINEA 6",
        "combinacion": false,
        "estacion": "EXISTENTE",
        "tipo": "ESTACION METRO",
        "start_date": "2017-11-02",
        "wikidata": "Q5848265",
        "wheelchair": "yes"
      },
      "geometry": {
        "type": "Point",
        "coordinates": [
          -70.6062176,
          -33.4623809
        ]
      }
    },
    {
      "type": "Feature",
      "properties": {
        "FID": 99,
        "nombre": "NEPTUNO",
        "linea": "LINEA 1",
        "combinacion": false,
        "estacion": "EXISTENTE",
        "tipo": "ESTACION METRO",
        "start_date": "1975-09-15",
        "wikidata": "Q9049542",
        "wheelchair": "no"
      },
      "geometry": {
        "type": "Point",
        "coordinates": [
          -70.7226828,
          -33.4515804
        ]
      }
    },
    {
      "type": "Feature",
      "properties": {
        "FID": 100,
        "nombre": "FRANKLIN",
        "linea": "LINEA 6",
        "combinacion": true,
        "estacion": "EXISTENTE",
        "tipo": "ESTACION METRO",
        "start_date": "1978-03-31",
        "wikidata": "Q5492141"
      },
      "geometry": {
        "type": "Point",
        "coordinates": [
          -70.6494774,
          -33.4766603
        ]
      }
    },
    {
      "type": "Feature",
      "properties": {
        "FID": 101,
        "nombre": "EL BOSQUE",
        "linea": "LINEA 2",
        "combinacion": false,
        "estacion": "EXISTENTE",
        "tipo": "ESTACION METRO",
        "start_date": "2023-11-27",
        "wikidata": "Q16592265",
        "wheelchair": "yes"
      },
      "geometry": {
        "type": "Point",
        "coordinates": [
          -70.6667515,
          -33.5465722
        ]
      }
    },
    {
      "type": "Feature",
      "properties": {
        "FID": 102,
        "nombre": "OBSERVATORIO",
        "linea": "LINEA 2",
        "combinacion": false,
        "estacion": "EXISTENTE",
        "tipo": "ESTACION METRO",
        "start_date": "2023-11-27",
        "wikidata": "Q18603636",
        "wheelchair": "yes"
      },
      "geometry": {
        "type": "Point",
        "coordinates": [
          -70.6705486,
          -33.560404
        ]
      }
    },
    {
      "type": "Feature",
      "properties": {
        "FID": 103,
        "nombre": "COPA LO MARTÍNEZ",
        "linea": "LINEA 2",
        "combinacion": false,
        "estacion": "EXISTENTE",
        "tipo": "ESTACION METRO",
        "start_date": "2023-11-27",
        "wikidata": "Q18642117",
        "wheelchair": "yes"
      },
      "geometry": {
        "type": "Point",
        "coordinates": [
          -70.6733824,
          -33.5706669
        ]
      }
    },
    {
      "type": "Feature",
      "properties": {
        "FID": 104,
        "nombre": "HOSPITAL EL PINO",
        "linea": "LINEA 2",
        "combinacion": false,
        "estacion": "EXISTENTE",
        "tipo": "ESTACION METRO",
        "start_date": "2023-11-27",
        "wikidata": "Q18603637",
        "wheelchair": "yes"
      },
      "geometry": {
        "type": "Point",
        "coordinates": [
          -70.6768121,
          -33.5828788
        ]
      }
    },
    {
      "type": "Feature",
      "properties": {
        "FID": 105,
        "nombre": "FERROCARRIL",
        "linea": "LINEA 3",
        "combinacion": false,
        "estacion": "EXISTENTE",
        "tipo": "ESTACION METRO",
        "start_date": "2023-09-25",
        "wikidata": "Q18603641",
        "wheelchair": "yes"
      },
      "geometry": {
        "type": "Point",
        "coordinates": [
          -70.7055375,
          -33.3654667
        ]
      }
    },
    {
      "type": "Feature",
      "properties": {
        "FID": 106,
        "nombre": "LO CRUZAT",
        "linea": "LINEA 3",
        "combinacion": false,
        "estacion": "EXISTENTE",
        "tipo": "ESTACION METRO",
        "start_date": "2023-09-25",
        "wikidata": "Q18603640",
        "wheelchair": "yes"
      },
      "geometry": {
        "type": "Point",
        "coordinates": [
          -70.719772,
          -33.3668342
        ]
      }
    },
    {
      "type": "Feature",
      "properties": {
        "FID": 107,
        "nombre": "PLAZA QUILICURA",
        "linea": "LINEA 3",
        "combinacion": false,
        "estacion": "EXISTENTE",
        "tipo": "ESTACION METRO",
        "start_date": "2023-09-25",
        "wikidata": "Q18603639",
        "wheelchair": "yes"
      },
      "geometry": {
        "type": "Point",
        "coordinates": [
          -70.7288942,
          -33.3657194
        ]
      }
    },
    {
      "type": "Feature",
      "properties": {
        "FID": 108,
        "nombre": "PARQUE ALMAGRO",
        "linea": "LINEA 3",
        "combinacion": false,
        "estacion": "EXISTENTE",
        "tipo": "ESTACION METRO",
        "start_date": "2019-01-22",
        "wikidata": "Q9055773",
        "wheelchair": "no"
      },
      "geometry": {
        "type": "Point",
        "coordinates": [
          -70.6505616,
          -33.4513929
        ]
      }
    },
    {
      "type": "Feature",
      "properties": {
        "FID": 109,
        "nombre": "SAN JOAQUÍN",
        "linea": "LINEA 5",
        "combinacion": false,
        "estacion": "EXISTENTE",
        "tipo": "ESTACION METRO",
        "start_date": "1997-04-05",
        "wikidata": "Q7414420"
      },
      "geometry": {
        "type": "Point",
        "coordinates": [
          -70.6158257,
          -33.4993359
        ]
      }
    },
    {
      "type": "Feature",
      "properties": {
        "FID": 110,
        "nombre": "LOS LEONES",
        "linea": "LINEA 6",
        "combinacion": true,
        "estacion": "EXISTENTE",
        "tipo": "ESTACION METRO",
        "start_date": "1980-08-31",
        "wikidata": "Q5397450",
        "wheelchair": "yes"
      },
      "geometry": {
        "type": "Point",
        "coordinates": [
          -70.6085607,
          -33.422019
        ]
      }
    },
    {
      "type": "Feature",
      "properties": {
        "FID": 111,
        "nombre": "LA CISTERNA",
        "linea": "LINEA 4A",
        "combinacion": true,
        "estacion": "EXISTENTE",
        "tipo": "ESTACION METRO",
        "start_date": "2004-12-22",
        "wikidata": "Q5250941",
        "wheelchair": "yes"
      },
      "geometry": {
        "type": "Point",
        "coordinates": [
          -70.6643328,
          -33.5373498
        ]
      }
    },
    {
      "type": "Feature",
      "properties": {
        "FID": 112,
        "nombre": "MATTA",
        "linea": "LINEA 3",
        "combinacion": false,
        "estacion": "EXISTENTE",
        "tipo": "ESTACION METRO",
        "start_date": "2019-01-22",
        "wikidata": "Q6006442"
      },
      "geometry": {
        "type": "Point",
        "coordinates": [
          -70.6430769,
          -33.4582698
        ]
      }
    },
    {
      "type": "Feature",
      "properties": {
        "FID": 113,
        "nombre": "HOSPITALES",
        "linea": "LINEA 3",
        "combinacion": false,
        "estacion": "EXISTENTE",
        "tipo": "ESTACION METRO",
        "start_date": "2019-01-22",
        "wikidata": "Q5903204"
      },
      "geometry": {
        "type": "Point",
        "coordinates": [
          -70.6564558,
          -33.4176739
        ]
      }
    },
    {
      "type": "Feature",
      "properties": {
        "FID": 114,
        "nombre": "PLAZA CHACABUCO",
        "linea": "LINEA 3",
        "combinacion": false,
        "estacion": "EXISTENTE",
        "tipo": "ESTACION METRO",
        "start_date": "2019-01-22",
        "wikidata": "Q6079474"
      },
      "geometry": {
        "type": "Point",
        "coordinates": [
          -70.6609686,
          -33.4067715
        ]
      }
    },
    {
      "type": "Feature",
      "properties": {
        "FID": 115,
        "nombre": "CONCHALÍ",
        "linea": "LINEA 3",
        "combinacion": false,
        "estacion": "EXISTENTE",
        "tipo": "ESTACION METRO",
        "start_date": "2019-01-22",
        "wikidata": "Q5780988"
      },
      "geometry": {
        "type": "Point",
        "coordinates": [
          -70.6695999,
          -33.3978904
        ]
      }
    },
    {
      "type": "Feature",
      "properties": {
        "FID": 116,
        "nombre": "VIVACETA",
        "linea": "LINEA 3",
        "combinacion": false,
        "estacion": "EXISTENTE",
        "tipo": "ESTACION METRO",
        "start_date": "2019-01-22",
        "wikidata": "Q6164154",
        "wheelchair": "yes"
      },
      "geometry": {
        "type": "Point",
        "coordinates": [
          -70.6796401,
          -33.3853813
        ]
      }
    },
    {
      "type": "Feature",
      "properties": {
        "FID": 117,
        "nombre": "CARDENAL CARO",
        "linea": "LINEA 3",
        "combinacion": false,
        "estacion": "EXISTENTE",
        "tipo": "ESTACION METRO",
        "start_date": "2019-01-22",
        "wikidata": "Q5749048",
        "wheelchair": "yes"
      },
      "geometry": {
        "type": "Point",
        "coordinates": [
          -70.6863362,
          -33.3732586
        ]
      }
    },
    {
      "type": "Feature",
      "properties": {
        "FID": 118,
        "nombre": "PLAZA DE ARMAS",
        "linea": "LINEA 3",
        "combinacion": true,
        "estacion": "EXISTENTE",
        "tipo": "ESTACION METRO",
        "start_date": "2000-03-02",
        "wikidata": "Q7203674",
        "wheelchair": "yes"
      },
      "geometry": {
        "type": "Point",
        "coordinates": [
          -70.6512777,
          -33.4374154
        ]
      }
    },
    {
      "type": "Feature",
      "properties": {
        "FID": 119,
        "nombre": "PUENTE CAL Y CANTO",
        "linea": "LINEA 2",
        "combinacion": true,
        "estacion": "EXISTENTE",
        "tipo": "ESTACION METRO",
        "start_date": "1987-09-15",
        "wikidata": "Q5248987",
        "wheelchair": "yes"
      },
      "geometry": {
        "type": "Point",
        "coordinates": [
          -70.6530774,
          -33.4328384
        ]
      }
    },
    {
      "type": "Feature",
      "properties": {
        "FID": 120,
        "nombre": "UNIVERSIDAD DE CHILE",
        "linea": "LINEA 3",
        "combinacion": true,
        "estacion": "EXISTENTE",
        "tipo": "ESTACION METRO",
        "start_date": "1977-03-31",
        "wikidata": "Q3569732",
        "wheelchair": "yes"
      },
      "geometry": {
        "type": "Point",
        "coordinates": [
          -70.6506654,
          -33.443867
        ]
      }
    },
    {
      "type": "Feature",
      "properties": {
        "FID": 121,
        "nombre": "IRARRÁZAVAL",
        "linea": "LINEA 5",
        "combinacion": true,
        "estacion": "EXISTENTE",
        "tipo": "ESTACION METRO",
        "start_date": "1997-04-05",
        "wikidata": "Q6449255"
      },
      "geometry": {
        "type": "Point",
        "coordinates": [
          -70.6283154,
          -33.4550535
        ]
      }
    },
    {
      "type": "Feature",
      "properties": {
        "FID": 122,
        "nombre": "ÑUÑOA",
        "linea": "LINEA 6",
        "combinacion": true,
        "estacion": "EXISTENTE",
        "tipo": "ESTACION METRO",
        "start_date": "2017-11-02",
        "wikidata": "Q5474916",
        "wheelchair": "yes"
      },
      "geometry": {
        "type": "Point",
        "coordinates": [
          -70.604972,
          -33.4541894
        ]
      }
    },
    {
      "type": "Feature",
      "properties": {
        "FID": 123,
        "nombre": "PLAZA EGAÑA",
        "linea": "LINEA 3",
        "combinacion": true,
        "estacion": "EXISTENTE",
        "tipo": "ESTACION METRO",
        "start_date": "2005-11-30",
        "wikidata": "Q7203606"
      },
      "geometry": {
        "type": "Point",
        "coordinates": [
          -70.570823,
          -33.4534937
        ]
      }
    },
    {
      "type": "Feature",
      "properties": {
        "FID": 124,
        "nombre": "FERNANDO CASTILLO VELASCO",
        "linea": "LINEA 3",
        "combinacion": false,
        "estacion": "EXISTENTE",
        "tipo": "ESTACION METRO",
        "start_date": "2019-01-22",
        "wikidata": "Q5970123",
        "wheelchair": "yes"
      },
      "geometry": {
        "type": "Point",
        "coordinates": [
          -70.558107,
          -33.4521007
        ]
      }
    },
    {
      "type": "Feature",
      "properties": {
        "FID": 125,
        "nombre": "VICENTE VALDÉS",
        "linea": "LINEA 5",
        "combinacion": true,
        "estacion": "EXISTENTE",
        "tipo": "ESTACION METRO",
        "start_date": "2005-11-30",
        "wikidata": "Q5249593",
        "wheelchair": "yes"
      },
      "geometry": {
        "type": "Point",
        "coordinates": [
          -70.5967924,
          -33.5264186
        ]
      }
    },
    {
      "type": "Feature",
      "properties": {
        "FID": 126,
        "nombre": "VICUÑA MACKENNA",
        "linea": "LINEA 4A",
        "combinacion": true,
        "estacion": "EXISTENTE",
        "tipo": "ESTACION METRO",
        "start_date": "2005-11-30",
        "wikidata": "Q5249667",
        "wheelchair": "yes"
      },
      "geometry": {
        "type": "Point",
        "coordinates": [
          -70.5962095,
          -33.5197638
        ]
      }
    }
  ]
}